{"type":"FeatureCollection","features":[{"type":"Feature","properties":{"name":"Chillán","comuna":"Chillán","cut":"16101","metro":"Chillán-Chillán Viejo","es_bbox":false},"geometry":{"type":"Polygon","coordinates":[[[-71.9303,-36.563],[-71.9624,-36.5651],[-71.9698,-36.5584],[-71.9814,-36.564],[-72.0021,-36.5632],[-72.0122,-36.555],[-72.016,-36.5613],[-72.0306,-36.5717],[-72.0211,-36.5783],[-72.0288,-36.5898],[-72.023,-36.5912],[-72.0294,-36.6043],[-72.0005,-36.6117],[-71.9929,-36.6207],[-71.965,-36.6292],[-71.95,-36.6379],[-71.9488,-36.6464],[-71.9525,-36.6569],[-71.9384,-36.666],[-71.9513,-36.6849],[-71.9827,-36.6715],[-71.99736335403728,-36.6942],[-72.06964098360656,-36.6942],[-72.069,-36.6925],[-72.0769,-36.6782],[-72.0787,-36.6685],[-72.0913,-36.654],[-72.0929,-36.6472],[-72.1011,-36.6447],[-72.1032,-36.6274],[-72.1233,-36.6235],[-72.1278,-36.6168],[-72.1471,-36.6148],[-72.1588,-36.6165],[-72.206,-36.6306],[-72.2141,-36.6244],[-72.2258,-36.6263],[-72.2266,-36.6319],[-72.252,-36.6251],[-72.2541,-36.6308],[-72.266,-36.628],[-72.2727,-36.6366],[-72.2873,-36.6291],[-72.2962,-36.6343],[-72.3028,-36.6301],[-72.3097,-36.6325],[-72.3201,-36.641522831050224],[-72.3201,-36.598602127659575],[-72.3165,-36.5985],[-72.3175,-36.5923],[-72.3068,-36.5908],[-72.2892,-36.5983],[-72.2686,-36.5952],[-72.2546,-36.58],[-72.2458,-36.5854],[-72.2195,-36.5818],[-72.2134,-36.5726],[-72.2028,-36.5716],[-72.2029,-36.5617],[-72.1916,-36.5535],[-72.1826,-36.5501],[-72.1665,-36.5563],[-72.1515,-36.5502],[-72.1272,-36.5504],[-72.1042,-36.5465],[-72.0933,-36.5511],[-72.0862,-36.5521],[-72.0808,-36.5426],[-72.068,-36.5347],[-72.0541,-36.5302],[-72.0472,-36.5229],[-72.0395,-36.5219],[-72.0299,-36.5259],[-72.0181,-36.5237],[-72.0035,-36.5161],[-72.0004,-36.5113],[-71.9804,-36.5095],[-71.9579,-36.5226],[-71.9371,-36.5243],[-71.9257,-36.52264302325581],[-71.9257,-36.563297841726616],[-71.9303,-36.563]]]}},{"type":"Feature","properties":{"name":"Chillán Viejo","comuna":"Chillán Viejo","cut":"16103","metro":null,"es_bbox":false},"geometry":{"type":"Polygon","coordinates":[[[-72.3097,-36.6325],[-72.3028,-36.6301],[-72.2962,-36.6343],[-72.2873,-36.6291],[-72.2727,-36.6366],[-72.266,-36.628],[-72.2541,-36.6308],[-72.252,-36.6251],[-72.2266,-36.6319],[-72.2258,-36.6263],[-72.2141,-36.6244],[-72.206,-36.6306],[-72.1588,-36.6165],[-72.1471,-36.6148],[-72.1278,-36.6168],[-72.1233,-36.6235],[-72.1032,-36.6274],[-72.1011,-36.6447],[-72.0929,-36.6472],[-72.0913,-36.654],[-72.0787,-36.6685],[-72.0769,-36.6782],[-72.069,-36.6925],[-72.06964098360656,-36.6942],[-72.3201,-36.6942],[-72.3201,-36.641522831050224],[-72.3097,-36.6325]]]}},{"type":"Feature","properties":{"name":"San Nicolás","comuna":"San Nicolás","cut":"16305","metro":null,"es_bbox":false},"geometry":{"type":"Polygon","coordinates":[[[-72.1042,-36.5465],[-72.1272,-36.5504],[-72.1515,-36.5502],[-72.1665,-36.5563],[-72.1826,-36.5501],[-72.1916,-36.5535],[-72.2029,-36.5617],[-72.2028,-36.5716],[-72.2134,-36.5726],[-72.2195,-36.5818],[-72.2458,-36.5854],[-72.2546,-36.58],[-72.2686,-36.5952],[-72.2892,-36.5983],[-72.3068,-36.5908],[-72.3175,-36.5923],[-72.3165,-36.5985],[-72.3201,-36.598602127659575],[-72.3201,-36.4681],[-72.0733,-36.4681],[-72.0754,-36.482],[-72.0576,-36.485],[-72.0636,-36.499],[-72.0687,-36.4998],[-72.0709,-36.5108],[-72.0781,-36.5215],[-72.0691,-36.527],[-72.08,-36.5354],[-72.0933,-36.5511],[-72.1042,-36.5465]]]}},{"type":"Feature","properties":{"name":"San Carlos","comuna":"San Carlos","cut":"16301","metro":null,"es_bbox":false},"geometry":{"type":"Polygon","coordinates":[[[-71.9371,-36.5243],[-71.9579,-36.5226],[-71.9804,-36.5095],[-72.0004,-36.5113],[-72.0035,-36.5161],[-72.0181,-36.5237],[-72.0299,-36.5259],[-72.0395,-36.5219],[-72.0472,-36.5229],[-72.0541,-36.5302],[-72.068,-36.5347],[-72.0808,-36.5426],[-72.0862,-36.5521],[-72.0933,-36.5511],[-72.08,-36.5354],[-72.0691,-36.527],[-72.0781,-36.5215],[-72.0709,-36.5108],[-72.0687,-36.4998],[-72.0636,-36.499],[-72.0576,-36.485],[-72.0754,-36.482],[-72.0733,-36.4681],[-71.9257,-36.4681],[-71.9257,-36.52264302325581],[-71.9371,-36.5243]]]}}]}